0 COSMOS 2251 DEB
1 33831U 93036BY  13281.76995649  .00017951  00000-0  40912-2 0  4108
2 33831 074.0314 120.6116 0028738 153.1287 337.3229 14.55559321244516
0 COSMOS 2251 DEB
1 33831U 93036BY  13282.37611390  .00032068  00000-0  72805-2 0  4117
2 33831 074.0314 119.4626 0028594 151.8687 273.5863 14.55608253244599
0 COSMOS 2251 DEB
1 33831U 93036BY  13283.00483106  .00027870  00000-0  63285-2 0  4128
2 33831 074.0314 118.2707 0028769 150.3124 328.4307 14.55633436244695
0 COSMOS 2251 DEB
1 33831U 93036BY  13283.53204358  .00039081  00000-0  88974-2 0  4147
2 33831 074.0288 117.2702 0027703 150.7633 209.5578 14.55637461244775
0 COSMOS 2251 DEB
1 33831U 93036BY  13283.96618353  .00026812  00000-0  60847-2 0  4134
2 33831 074.0315 116.4486 0028678 148.2093 326.3093 14.55670644244837
0 COSMOS 2251 DEB
1 33831U 93036BY  13285.96793244  .00023170  00000-0  52532-2 0  4157
2 33831 074.0311 112.6541 0028729 143.7591 016.7516 14.55747878245120
0 COSMOS 2251 DEB
1 33831U 93036BY  13287.32391959  .00024699  00000-0  55923-2 0  4161
2 33831 074.0307 110.0830 0028646 140.8407 283.2204 14.55798269245316
0 COSMOS 2251 DEB
1 33831U 93036BY  13287.95916495  .00042005  00000-0  94744-2 0  4174
2 33831 074.0305 108.8784 0028564 139.4901 012.5027 14.55833096245414
0 COSMOS 2251 DEB
1 33831U 93036BY  13288.91401662  .00035235  00000-0  79464-2 0  4186
2 33831 074.0301 107.0676 0028377 137.1882 337.2736 14.55895551245559
0 COSMOS 2251 DEB
1 33831U 93036BY  13289.94485706  .00031381  00000-0  70749-2 0  4197
2 33831 074.0300 105.1125 0028316 134.9638 340.2710 14.55943989245705
0 COSMOS 2251 DEB
1 33831U 93036BY  13291.18238488  .00028908  00000-0  65106-2 0  4203
2 33831 074.0303 102.7650 0028184 132.1062 347.0239 14.56014529245888
0 COSMOS 2251 DEB
1 33831U 93036BY  13292.34125931  .00028626  00000-0  64401-2 0  4215
2 33831 074.0307 100.5670 0028003 129.7762 301.4177 14.56071187246046
0 COSMOS 2251 DEB
1 33831U 93036BY  13293.79148505  .00032154  00000-0  72193-2 0  4226
2 33831 074.0312 097.8158 0027701 126.6354 343.5435 14.56140039246269
0 COSMOS 2251 DEB
1 33831U 93036BY  13294.89176104  .00031249  00000-0  70090-2 0  4233
2 33831 074.0314 095.7284 0027532 124.1107 351.6155 14.56197060246422
